[{"OBJECT_NAME":"ICEYE-X75","OBJECT_ID":"2026-067CK","EPOCH":"2026-04-22T20:11:10.728096","MEAN_MOTION":14.91928726,"ECCENTRICITY":0.0003,"INCLINATION":97.7554,"RA_OF_ASC_NODE":71.9702,"ARG_OF_PERICENTER":104.8876,"MEAN_ANOMALY":255.2675,"EPHEMERIS_TYPE":0,"CLASSIFICATION_TYPE":"U","NORAD_CAT_ID":68497,"ELEMENT_SET_NO":999,"REV_AT_EPOCH":347,"BSTAR":0.00022261,"MEAN_MOTION_DOT":2.197e-5,"MEAN_MOTION_DDOT":0},{"OBJECT_NAME":"TRANSPORTER-16 OBJECT CL","OBJECT_ID":"2026-067CL","EPOCH":"2026-04-22T20:26:34.888416","MEAN_MOTION":14.91248359,"ECCENTRICITY":0.0001009,"INCLINATION":97.7512,"RA_OF_ASC_NODE":71.9466,"ARG_OF_PERICENTER":211.2693,"MEAN_ANOMALY":148.8466,"EPHEMERIS_TYPE":0,"CLASSIFICATION_TYPE":"U","NORAD_CAT_ID":68498,"ELEMENT_SET_NO":999,"REV_AT_EPOCH":347,"BSTAR":0.00020851,"MEAN_MOTION_DOT":2.019e-5,"MEAN_MOTION_DDOT":0},{"OBJECT_NAME":"TRANSPORTER-16 OBJECT CM","OBJECT_ID":"2026-067CM","EPOCH":"2026-04-22T20:22:41.026080","MEAN_MOTION":14.91395558,"ECCENTRICITY":0.0001082,"INCLINATION":97.7546,"RA_OF_ASC_NODE":71.9578,"ARG_OF_PERICENTER":146.305,"MEAN_ANOMALY":213.8237,"EPHEMERIS_TYPE":0,"CLASSIFICATION_TYPE":"U","NORAD_CAT_ID":68499,"ELEMENT_SET_NO":999,"REV_AT_EPOCH":347,"BSTAR":0.00011166,"MEAN_MOTION_DOT":1.059e-5,"MEAN_MOTION_DDOT":0},{"OBJECT_NAME":"ICEYE-X74","OBJECT_ID":"2026-067CN","EPOCH":"2026-04-22T20:21:59.034816","MEAN_MOTION":14.91444916,"ECCENTRICITY":0.0001892,"INCLINATION":97.7581,"RA_OF_ASC_NODE":71.9672,"ARG_OF_PERICENTER":154.1995,"MEAN_ANOMALY":205.9318,"EPHEMERIS_TYPE":0,"CLASSIFICATION_TYPE":"U","NORAD_CAT_ID":68500,"ELEMENT_SET_NO":999,"REV_AT_EPOCH":347,"BSTAR":0.0001806,"MEAN_MOTION_DOT":1.75e-5,"MEAN_MOTION_DDOT":0},{"OBJECT_NAME":"TRANSPORTER-16 OBJECT CP","OBJECT_ID":"2026-067CP","EPOCH":"2026-04-22T20:26:49.085664","MEAN_MOTION":14.91249427,"ECCENTRICITY":0.0002702,"INCLINATION":97.7593,"RA_OF_ASC_NODE":71.9651,"ARG_OF_PERICENTER":181.9389,"MEAN_ANOMALY":178.182,"EPHEMERIS_TYPE":0,"CLASSIFICATION_TYPE":"U","NORAD_CAT_ID":68501,"ELEMENT_SET_NO":999,"REV_AT_EPOCH":347,"BSTAR":0.00015662,"MEAN_MOTION_DOT":1.502e-5,"MEAN_MOTION_DDOT":0},{"OBJECT_NAME":"ICEYE-X76","OBJECT_ID":"2026-067CQ","EPOCH":"2026-04-22T20:20:27.703968","MEAN_MOTION":14.91514471,"ECCENTRICITY":0.0002106,"INCLINATION":97.7588,"RA_OF_ASC_NODE":71.9702,"ARG_OF_PERICENTER":146.1816,"MEAN_ANOMALY":213.9537,"EPHEMERIS_TYPE":0,"CLASSIFICATION_TYPE":"U","NORAD_CAT_ID":68502,"ELEMENT_SET_NO":999,"REV_AT_EPOCH":347,"BSTAR":0.00018862,"MEAN_MOTION_DOT":1.833e-5,"MEAN_MOTION_DDOT":0},{"OBJECT_NAME":"FLYLAB2","OBJECT_ID":"2026-067CR","EPOCH":"2026-04-22T20:37:58.488672","MEAN_MOTION":14.90538595,"ECCENTRICITY":0.0003713,"INCLINATION":97.7533,"RA_OF_ASC_NODE":71.942,"ARG_OF_PERICENTER":236.3874,"MEAN_ANOMALY":123.699,"EPHEMERIS_TYPE":0,"CLASSIFICATION_TYPE":"U","NORAD_CAT_ID":68503,"ELEMENT_SET_NO":999,"REV_AT_EPOCH":347,"BSTAR":0.00014739,"MEAN_MOTION_DOT":1.385e-5,"MEAN_MOTION_DDOT":0},{"OBJECT_NAME":"ICEYE-X72","OBJECT_ID":"2026-067CS","EPOCH":"2026-04-22T20:14:42.206784","MEAN_MOTION":14.9177171,"ECCENTRICITY":0.0002813,"INCLINATION":97.7588,"RA_OF_ASC_NODE":71.9755,"ARG_OF_PERICENTER":124.5058,"MEAN_ANOMALY":235.6427,"EPHEMERIS_TYPE":0,"CLASSIFICATION_TYPE":"U","NORAD_CAT_ID":68504,"ELEMENT_SET_NO":999,"REV_AT_EPOCH":347,"BSTAR":0.00020952,"MEAN_MOTION_DOT":2.056e-5,"MEAN_MOTION_DDOT":0},{"OBJECT_NAME":"GEMS2-AMETHYST","OBJECT_ID":"2026-067CT","EPOCH":"2026-04-22T20:40:01.661376","MEAN_MOTION":14.90682352,"ECCENTRICITY":0.0004149,"INCLINATION":97.7572,"RA_OF_ASC_NODE":71.9483,"ARG_OF_PERICENTER":214.5099,"MEAN_ANOMALY":145.585,"EPHEMERIS_TYPE":0,"CLASSIFICATION_TYPE":"U","NORAD_CAT_ID":68505,"ELEMENT_SET_NO":999,"REV_AT_EPOCH":347,"BSTAR":0.00033307,"MEAN_MOTION_DOT":3.212e-5,"MEAN_MOTION_DDOT":0},{"OBJECT_NAME":"STARLINK-37262","OBJECT_ID":"2026-068A","EPOCH":"2026-04-22T14:31:42.059424","MEAN_MOTION":15.80986147,"ECCENTRICITY":0.0002247,"INCLINATION":53.1573,"RA_OF_ASC_NODE":289.2413,"ARG_OF_PERICENTER":170.5237,"MEAN_ANOMALY":189.5828,"EPHEMERIS_TYPE":0,"CLASSIFICATION_TYPE":"U","NORAD_CAT_ID":68508,"ELEMENT_SET_NO":999,"REV_AT_EPOCH":361,"BSTAR":0.0014324,"MEAN_MOTION_DOT":0.00293365,"MEAN_MOTION_DDOT":0},{"OBJECT_NAME":"STARLINK-36292","OBJECT_ID":"2026-068B","EPOCH":"2026-04-22T14:30:36.900864","MEAN_MOTION":15.80917497,"ECCENTRICITY":9.8e-5,"INCLINATION":53.1571,"RA_OF_ASC_NODE":289.2358,"ARG_OF_PERICENTER":154.1143,"MEAN_ANOMALY":205.9928,"EPHEMERIS_TYPE":0,"CLASSIFICATION_TYPE":"U","NORAD_CAT_ID":68509,"ELEMENT_SET_NO":999,"REV_AT_EPOCH":361,"BSTAR":0.00093769,"MEAN_MOTION_DOT":0.0018886,"MEAN_MOTION_DDOT":0},{"OBJECT_NAME":"STARLINK-37260","OBJECT_ID":"2026-068C","EPOCH":"2026-04-22T14:29:32.582112","MEAN_MOTION":15.80909843,"ECCENTRICITY":9.4e-5,"INCLINATION":53.157,"RA_OF_ASC_NODE":289.2301,"ARG_OF_PERICENTER":110.4505,"MEAN_ANOMALY":249.6619,"EPHEMERIS_TYPE":0,"CLASSIFICATION_TYPE":"U","NORAD_CAT_ID":68510,"ELEMENT_SET_NO":999,"REV_AT_EPOCH":361,"BSTAR":0.0007364,"MEAN_MOTION_DOT":0.00147399,"MEAN_MOTION_DDOT":0},{"OBJECT_NAME":"STARLINK-37280","OBJECT_ID":"2026-068D","EPOCH":"2026-04-22T11:25:16.665312","MEAN_MOTION":15.81154981,"ECCENTRICITY":0.0002936,"INCLINATION":53.1574,"RA_OF_ASC_NODE":289.8543,"ARG_OF_PERICENTER":322.6977,"MEAN_ANOMALY":37.3842,"EPHEMERIS_TYPE":0,"CLASSIFICATION_TYPE":"U","NORAD_CAT_ID":68511,"ELEMENT_SET_NO":999,"REV_AT_EPOCH":359,"BSTAR":-0.0025867,"MEAN_MOTION_DOT":-0.00489999,"MEAN_MOTION_DDOT":0},{"OBJECT_NAME":"STARLINK-37286","OBJECT_ID":"2026-068E","EPOCH":"2026-04-23T06:00:02.000160","MEAN_MOTION":15.80826549,"ECCENTRICITY":7.544e-5,"INCLINATION":53.1568,"RA_OF_ASC_NODE":285.9759,"ARG_OF_PERICENTER":95.3184,"MEAN_ANOMALY":352.9684,"EPHEMERIS_TYPE":0,"CLASSIFICATION_TYPE":"U","NORAD_CAT_ID":68512,"ELEMENT_SET_NO":999,"REV_AT_EPOCH":497,"BSTAR":0.00044436712,"MEAN_MOTION_DOT":0.0008771,"MEAN_MOTION_DDOT":0},{"OBJECT_NAME":"STARLINK-36250","OBJECT_ID":"2026-068F","EPOCH":"2026-04-22T08:21:04.512960","MEAN_MOTION":15.8103913,"ECCENTRICITY":0.0001433,"INCLINATION":53.1567,"RA_OF_ASC_NODE":290.4774,"ARG_OF_PERICENTER":140.9561,"MEAN_ANOMALY":219.1566,"EPHEMERIS_TYPE":0,"CLASSIFICATION_TYPE":"U","NORAD_CAT_ID":68513,"ELEMENT_SET_NO":999,"REV_AT_EPOCH":357,"BSTAR":0.0018671,"MEAN_MOTION_DOT":0.003878,"MEAN_MOTION_DDOT":0},{"OBJECT_NAME":"STARLINK-37251","OBJECT_ID":"2026-068G","EPOCH":"2026-04-22T09:51:02.059200","MEAN_MOTION":15.80840613,"ECCENTRICITY":0.000121,"INCLINATION":53.1567,"RA_OF_ASC_NODE":290.1567,"ARG_OF_PERICENTER":50.8929,"MEAN_ANOMALY":309.2201,"EPHEMERIS_TYPE":0,"CLASSIFICATION_TYPE":"U","NORAD_CAT_ID":68514,"ELEMENT_SET_NO":999,"REV_AT_EPOCH":358,"BSTAR":0.0013172,"MEAN_MOTION_DOT":0.00267069,"MEAN_MOTION_DDOT":0},{"OBJECT_NAME":"STARLINK-36293","OBJECT_ID":"2026-068H","EPOCH":"2026-04-22T09:51:01.793952","MEAN_MOTION":15.80853604,"ECCENTRICITY":7.82e-5,"INCLINATION":53.1575,"RA_OF_ASC_NODE":290.1563,"ARG_OF_PERICENTER":82.711,"MEAN_ANOMALY":277.4002,"EPHEMERIS_TYPE":0,"CLASSIFICATION_TYPE":"U","NORAD_CAT_ID":68515,"ELEMENT_SET_NO":999,"REV_AT_EPOCH":358,"BSTAR":0.0011679,"MEAN_MOTION_DOT":0.00235998,"MEAN_MOTION_DDOT":0},{"OBJECT_NAME":"STARLINK-36290","OBJECT_ID":"2026-068J","EPOCH":"2026-04-22T14:23:03.052032","MEAN_MOTION":15.80866094,"ECCENTRICITY":0.0001235,"INCLINATION":53.1571,"RA_OF_ASC_NODE":289.2013,"ARG_OF_PERICENTER":98.7131,"MEAN_ANOMALY":261.4031,"EPHEMERIS_TYPE":0,"CLASSIFICATION_TYPE":"U","NORAD_CAT_ID":68516,"ELEMENT_SET_NO":999,"REV_AT_EPOCH":361,"BSTAR":0.0014473,"MEAN_MOTION_DOT":0.00294822,"MEAN_MOTION_DDOT":0},{"OBJECT_NAME":"STARLINK-36298","OBJECT_ID":"2026-068K","EPOCH":"2026-04-22T14:21:58.881024","MEAN_MOTION":15.80918773,"ECCENTRICITY":8.49e-5,"INCLINATION":53.1572,"RA_OF_ASC_NODE":289.1962,"ARG_OF_PERICENTER":63.7702,"MEAN_ANOMALY":296.3408,"EPHEMERIS_TYPE":0,"CLASSIFICATION_TYPE":"U","NORAD_CAT_ID":68517,"ELEMENT_SET_NO":999,"REV_AT_EPOCH":361,"BSTAR":0.00093257,"MEAN_MOTION_DOT":0.00187814,"MEAN_MOTION_DDOT":0},{"OBJECT_NAME":"STARLINK-36857","OBJECT_ID":"2026-068L","EPOCH":"2026-04-22T14:19:50.411136","MEAN_MOTION":15.80810017,"ECCENTRICITY":4.11e-5,"INCLINATION":53.1567,"RA_OF_ASC_NODE":289.1861,"ARG_OF_PERICENTER":41.9931,"MEAN_ANOMALY":318.1123,"EPHEMERIS_TYPE":0,"CLASSIFICATION_TYPE":"U","NORAD_CAT_ID":68518,"ELEMENT_SET_NO":999,"REV_AT_EPOCH":361,"BSTAR":0.00070287,"MEAN_MOTION_DOT":0.00139887,"MEAN_MOTION_DDOT":0},{"OBJECT_NAME":"STARLINK-36326","OBJECT_ID":"2026-068M","EPOCH":"2026-04-22T14:18:43.449408","MEAN_MOTION":15.80982916,"ECCENTRICITY":8.06e-5,"INCLINATION":53.1565,"RA_OF_ASC_NODE":289.1798,"ARG_OF_PERICENTER":31.0152,"MEAN_ANOMALY":329.0918,"EPHEMERIS_TYPE":0,"CLASSIFICATION_TYPE":"U","NORAD_CAT_ID":68519,"ELEMENT_SET_NO":999,"REV_AT_EPOCH":361,"BSTAR":0.00047633,"MEAN_MOTION_DOT":0.00094832,"MEAN_MOTION_DDOT":0},{"OBJECT_NAME":"STARLINK-37126","OBJECT_ID":"2026-068N","EPOCH":"2026-04-22T15:49:45.969312","MEAN_MOTION":15.80981211,"ECCENTRICITY":9.357e-5,"INCLINATION":53.1566,"RA_OF_ASC_NODE":288.8641,"ARG_OF_PERICENTER":54.8801,"MEAN_ANOMALY":305.2309,"EPHEMERIS_TYPE":0,"CLASSIFICATION_TYPE":"U","NORAD_CAT_ID":68520,"ELEMENT_SET_NO":999,"REV_AT_EPOCH":362,"BSTAR":0.0011418649,"MEAN_MOTION_DOT":0.00231982,"MEAN_MOTION_DDOT":0},{"OBJECT_NAME":"STARLINK-36347","OBJECT_ID":"2026-068P","EPOCH":"2026-04-22T15:48:27.404064","MEAN_MOTION":15.81549196,"ECCENTRICITY":2.087e-5,"INCLINATION":53.1573,"RA_OF_ASC_NODE":288.8571,"ARG_OF_PERICENTER":350.9829,"MEAN_ANOMALY":9.119,"EPHEMERIS_TYPE":0,"CLASSIFICATION_TYPE":"U","NORAD_CAT_ID":68521,"ELEMENT_SET_NO":999,"REV_AT_EPOCH":362,"BSTAR":0.0021277798,"MEAN_MOTION_DOT":0.00456297,"MEAN_MOTION_DDOT":0}]
